1 58438U 23183B   24146.75164305 -.00003053  00000+0 -21110-3 0  9993
2 58438  43.0036 351.3541 0001263 270.3907  89.6791 15.02524102 28516
STARLINK-30951          
1 58439U 23183C   24147.25002315 -.00018707  00000+0 -13730-2 0  9992
2 58439  43.0042 348.5592 0001613 262.2721 312.7914 15.02547061 28595
STARLINK-30950          
1 58440U 23183D   24146.82807244 -.00000490  00000+0 -88893-5 0  9995
2 58440  43.0009 301.1005 0001132 262.7722  97.3000 15.25882360 29105
STARLINK-30942          
1 58441U 23183E   24145.99708417  .00012639  00000+0  94883-3 0  9995
2 58441  42.9990 355.1605 0001387 325.8878  34.1874 15.02542654 28384
STARLINK-30959          
1 58442U 23183F   24146.72167271 -.00000785  00000+0 -43046-4 0  9992
2 58442  43.0028 351.1324 0000834 271.8936  88.1810 15.02518521 28514
STARLINK-30971          
1 58443U 23183G   24145.93386078  .00073794  00000+0  53907-2 0  9996
2 58443  42.9988 355.5443 0003021 282.8991  77.1514 15.02742371 28377
STARLINK-30963          
1 58444U 23183H   24146.85129765  .00014471  00000+0  10840-2 0  9993
2 58444  43.0040 350.3798 0001490 274.3071  85.7601 15.02538533 28531
STARLINK-30961          
1 58445U 23183J   24146.84795891  .00000092  00000+0  21862-4 0  9994
2 58445  43.0048 350.3535 0001277 269.2126  90.8570 15.02543178 28539
STARLINK-30975          
1 58446U 23183K   24145.63261061  .00000089  00000+0  21625-4 0  9991
2 58446  43.0046 357.5603 0001131 271.9734  88.0979 15.02535501 28349
STARLINK-30976          
1 58447U 23183L   24147.03743175  .00016302  00000+0  12197-2 0  9996
2 58447  43.0042 349.2284 0001976 260.2770  99.7849 15.02515080 28566
STARLINK-30926          
1 58448U 23183M   24146.56873380  .00001105  00000+0  96863-4 0  9995
2 58448  43.0026 351.6596 0001385 262.8713  97.1972 15.02532005 28476
STARLINK-30943          
1 58449U 23183N   24146.63584345  .00000188  00000+0  28995-4 0  9995
2 58449  43.0018 326.1600 0000997 260.5090  99.5640 15.02534037 28781
STARLINK-30946          
1 58450U 23183P   24145.95723375 -.00002526  00000+0 -17196-3 0  9999
2 58450  43.0040 355.7110 0001854 266.1410  93.9220 15.02532868 28370
STARLINK-30944          
1 58451U 23183Q   24147.04406646  .00000674  00000+0  64975-4 0  9999
2 58451  43.0052 349.2489 0001475 270.3236  89.7438 15.02552919 28433
STARLINK-30928          
1 58452U 23183R   24147.04074507  .00002096  00000+0  17024-3 0  9999
2 58452  43.0041 349.2246 0001417 273.1175  86.9505 15.02528282 28566
STARLINK-30957          
1 58453U 23183S   24146.62867206  .00002057  00000+0  16731-3 0  9990
2 58453  43.0016 352.1446 0000898 248.5856 111.4891 15.02538691 28475
STARLINK-30966          
1 58454U 23183T   24145.96057245  .00005552  00000+0  42569-3 0  9992
2 58454  43.0038 355.7333 0001556 272.3070  87.7594 15.02543473 28377
STARLINK-30935          
1 58455U 23183U   24146.93775173  .00003479  00000+0  27244-3 0  9997
2 58455  43.0050 350.1641 0001209 273.1431  86.9273 15.02543013 28542
STARLINK-30960          
1 58456U 23183V   24147.00756059  .00000833  00000+0  76709-4 0  9991
2 58456  43.0032 349.8356 0001365 320.4083  39.6659 15.02538094 28550
STARLINK-30958          
1 58457U 23183W   24145.92504417 -.00000372  00000+0 -12478-4 0  9993
2 58457  43.0042 355.4723 0001199 271.4638  88.6067 15.02536781 28276
STARLINK-30962          
1 58458U 23183X   24146.96427161  .00002839  00000+0  22511-3 0  9995
2 58458  43.0048 349.5116 0001580 271.7885  88.2776 15.02542875 28346
STARLINK-30977          
1 58459U 23183Y   24146.91667824  .00002663  00000+0  21211-3 0  9994
2 58459  43.0043 350.2383 0001989 284.0177 339.8992 15.02544942 28321
STARLINK-30947          
1 58473U 23186A   24146.98232420 -.00005699  00000+0 -40728-3 0  9998
2 58473  43.0017  14.4002 0001748 269.4015  90.6627 15.02522388 27614
STARLINK-30995          
1 58474U 23186B   24147.25002315 -.00017068  00000+0 -58911-3 0  9994
2 58474  43.0063 353.0106 0005689 286.1612 251.1199 15.28805820 27891
STARLINK-30941          
1 58475U 23186C   24146.90919451  .00000831  00000+0  76597-4 0  9993
2 58475  43.0025  14.7107 0001842 270.8533  89.2098 15.02537081 27566
STARLINK-30980          
1 58476U 23186D   24146.91667824  .00012256  00000+0  92093-3 0  9991
2 58476  43.0019  14.6286 0001427 263.1815 155.4670 15.02529348 27608
STARLINK-30965          
1 58477U 23186E   24146.86295175 -.00002765  00000+0 -18978-3 0  9998
2 58477  43.0034   2.2166 0001258 261.2378  98.8322 15.02518717 27748
STARLINK-30990          
1 58478U 23186F   24147.03547782 -.00011850  00000+0 -86243-3 0  9998
2 58478  43.0034  13.9369 0001419 280.8871  79.1812 15.02586730 27732
STARLINK-30974          
1 58479U 23186G   24147.07841958  .00049071  00000+0  52754-3 0  9999
2 58479  42.9991 273.4356 0003754 306.5925  53.4594 15.62964033 28973
STARLINK-30984          
1 58480U 23186H   24146.98887615 -.00000282  00000+0 -58159-5 0  9990
2 58480  43.0044  13.5801 0001118 292.7952  67.2773 15.02533872 27633
STARLINK-30956          
1 58481U 23186J   24146.60640577  .00000974  00000+0  87223-4 0  9993
2 58481  43.0051 351.4561 0001795 274.5790  85.4848 15.02529938 27855
STARLINK-30997          
1 58482U 23186K   24146.67313607 -.00004075  00000+0 -28684-3 0  9995
2 58482  43.0039  15.4849 0001955 266.7971  93.2648 15.02519567 27571
STARLINK-30994          
1 58483U 23186L   24147.00001157  .00035127  00000+0  13485-2 0  9990
2 58483  43.0016 339.9834 0001540 266.3727 181.9717 15.25855832 27979
STARLINK-30991          
1 58484U 23186M   24146.71963415  .00006309  00000+0  48177-3 0  9999
2 58484  43.0016  15.0019 0000906 305.8450  54.2308 15.02530713 27582
STARLINK-30979          
1 58485U 23186N   24146.96229714  .00027277  00000+0  20192-2 0  9997
2 58485  43.0033  14.2487 0002293 321.2800  38.7878 15.02670087 27616
STARLINK-31005          
1 58486U 23186P   24146.36071824  .00001502  00000+0  12620-3 0  9990
2 58486  43.0032  17.4764 0001605 263.3568  96.7091 15.02538015 27561
STARLINK-30987          
1 58487U 23186Q   24146.95569168 -.00000139  00000+0  47490-5 0  9990
2 58487  43.0041  14.2001 0001178 273.0945  86.9763 15.02542289 27614
STARLINK-31000          
1 58488U 23186R   24146.35406522  .00000284  00000+0  36058-4 0  9996
2 58488  43.0049  17.4199 0000875 297.5156  62.5597 15.02536171 27566
STARLINK-30993          
1 58489U 23186S   24147.01550700 -.00001968  00000+0 -13062-3 0  9990
2 58489  43.0047  13.7821 0001624 264.2766  95.7891 15.02533858 27628
STARLINK-30978          
1 58490U 23186T   24145.94853313 -.00001774  00000+0 -11632-3 0  9994
2 58490  43.0037  19.5385 0001511 273.3244  86.7425 15.02533627 27688
STARLINK-30953          
1 58491U 23186U   24146.62089660  .00008853  00000+0  34788-3 0  9997
2 58491  43.0013 353.8093 0001275 260.9949  99.0757 15.25910806 28032
STARLINK-30986          
1 58492U 23186V   24146.33736669  .00063464  00000+0  46527-2 0  9996
2 58492  42.9990  17.3025 0004846 274.6685  85.3604 15.02675081 27562
STARLINK-30985          
1 58493U 23186W   24146.33407975  .00000917  00000+0  82980-4 0  9991
2 58493  43.0047  17.2683 0001796 260.9511  99.1128 15.02535789 27568
STARLINK-30981          
1 58494U 23186X   24146.33079292 -.00035362  00000+0 -26197-2 0  9999
2 58494  42.9928  17.2587 0001619 300.6746  59.3937 15.02480671 27569
STARLINK-31002          
1 58495U 23186Y   24146.32743864  .00007360  00000+0  55927-3 0  9991
2 58495  43.0036  17.2213 0001158 263.2594  96.8116 15.02541163 27739
STARLINK-31026          
1 58508U 23191A   24146.77675799 -.00005805  00000+0 -41501-3 0  9999
2 58508  43.0053  54.8040 0001086 266.0805  93.9914 15.02535006 27243
STARLINK-31020          
1 58509U 23191B   24146.77354241  .00002977  00000+0  23540-3 0  9994
2 58509  43.0044  55.6326 0001232 261.5189  98.5514 15.02528541 27117
STARLINK-30989          
1 58510U 23191C   24146.78872711 -.00000811  00000+0 -44970-4 0  9992
2 58510  43.0060  54.0412 0001482 271.6797  88.3875 15.02536413 27260
STARLINK-30968          
1 58511U 23191D   24146.78537482  .00003045  00000+0  24027-3 0  9996
2 58511  43.0044  54.0154 0001151 274.2668  85.8042 15.02548640 27202
STARLINK-30982          
1 58512U 23191E   24147.11446236 -.00013738  00000+0 -10048-2 0  9990
2 58512  42.9989  52.1925 0001970 271.5348  88.5268 15.02500000 27194
STARLINK-30998          
1 58513U 23191F   24146.77875479 -.00001707  00000+0 -11135-3 0  9999
2 58513  43.0036  53.9676 0001313 279.0597  81.0097 15.02521890 27257
STARLINK-30983          
1 58514U 23191G   24147.13431073  .00000169  00000+0  27566-4 0  9994
2 58514  43.0038  51.4803 0001366 265.2242  94.8445 15.02540944 26874
STARLINK-31017          
1 58515U 23191H   24146.58334491  .00133180  00000+0  27658-2 0  9999
2 58515  43.0013 354.2874 0006963 280.6673  82.8037 15.44461815  5839
STARLINK-31028          
1 58516U 23191J   24146.77203499  .00062740  00000+0  46026-2 0  9997
2 58516  43.0006  53.9281 0002616 292.7061  67.3505 15.02661340 27205
STARLINK-31011          
1 58517U 23191K   24146.44304041 -.00003938  00000+0 -27691-3 0  9991
2 58517  43.0045  55.7478 0001321 295.8822  64.1885 15.02498308 27172
STARLINK-31021          
1 58518U 23191L   24146.45954681  .00000046  00000+0  18514-4 0  9994
2 58518  43.0037  54.9935 0001930 268.1235  91.9386 15.02527346 27180
STARLINK-31010          
1 58519U 23191M   24147.06115713  .00001937  00000+0  15842-3 0  9998
2 58519  43.0040  51.7328 0001460 257.3097 102.7582 15.02546168 27249
STARLINK-31003          
1 58520U 23191N   24146.76873836 -.00000602  00000+0 -29535-4 0  9998
2 58520  43.0006  53.8945 0000656 283.0423  77.0346 15.02533428 27254
STARLINK-31015          
1 58521U 23191P   24146.43302756  .00000423  00000+0  46360-4 0  9995
2 58521  43.0004  55.6787 0001089 267.7718  92.2999 15.02531810 27148
STARLINK-31023          
1 58522U 23191Q   24146.42969034 -.00000708  00000+0 -37402-4 0  9998
